STARLINK-34852          
1 66135U 25237X   25308.83336806 -.00062934  00000+0 -42795-3 0  9990
2 66135  53.1562 267.8857 0001409 103.8997  36.3758 15.74223614  3346
STARLINK-35592          
1 66136U 25237Y   25308.83336806 -.00074579  00000+0 -50886-3 0  9999
2 66136  53.1564 267.8817 0000908 110.9485  31.2579 15.74215142  3385
STARLINK-35576          
1 66137U 25237Z   25308.83336806 -.00088006  00000+0 -60179-3 0  9996
2 66137  53.1561 267.8776 0001041 116.8503  27.2671 15.74230686  3380
STARLINK-35623          
1 66138U 25237AA  25308.83336806 -.00073529  00000+0 -50140-3 0  9998
2 66138  53.1562 267.8738 0001225 105.1950  40.8311 15.74222010  3385
STARLINK-35549          
1 66139U 25237AB  25308.83336806 -.00058722  00000+0 -39926-3 0  9996
2 66139  53.1562 267.8655 0001141 103.9848  45.8987 15.74199385  3385
STARLINK-35625          
1 66140U 25237AC  25308.83336806 -.00069775  00000+0 -47552-3 0  9992
2 66140  53.1562 267.8698 0001123  93.7758  54.1791 15.74214886  3380
STARLINK-35603          
1 66141U 25237AD  25308.83336806 -.00022377  00000+0 -14890-3 0  9999
2 66141  53.1561 267.8612 0001126 102.2125  49.5776 15.74187405  3380
TJS-20                  
1 66142U 25238A   25308.61952463  .00000027  00000+0  00000+0 0  9990
2 66142   5.9751 300.4868 0001954 151.6913 237.4519  1.00270081    80
CZ-5 R/B                
1 66143U 25238B   25308.33939777  .00032736  93255-6  13325-2 0  9993
2 66143  16.3627 269.4708 7595547 171.3434 220.2509  1.93246344   240
SPAINSAT NG II          
1 66144U 25239A   25307.96108262 -.00000276  00000+0  33584-2 0  9993
2 66144  24.1342 245.2589 8115523 181.1363 173.9363  1.12068413   145
STARLINK-35318          
1 66146U 25240A   25308.66670139 -.01334008  00000+0 -72454-2 0  9996
2 66146  53.1522 288.0609 0000666 102.5241 252.7536 15.82197534  2837
STARLINK-33948          
1 66147U 25240B   25308.66670139 -.01355125  00000+0 -73749-2 0  9998
2 66147  53.1523 288.0563 0000567  98.0259 259.4783 15.82204394  2837
