CCSDS_OMM_VERS = 2.0
CREATION_DATE  = 
ORIGINATOR     = 

OBJECT_NAME    = STARLINK-34852
OBJECT_ID      = 2025-237X
CENTER_NAME    = EARTH
REF_FRAME      = TEME
TIME_SYSTEM    = UTC
MEAN_ELEMENT_THEORY = SGP/SGP4

EPOCH          = 2025-11-04T20:00:03.000384
MEAN_MOTION    = 15.74223614
ECCENTRICITY   = .0001409
INCLINATION    = 53.1562
RA_OF_ASC_NODE = 267.8857
ARG_OF_PERICENTER = 103.8997
MEAN_ANOMALY   = 36.3758

EPHEMERIS_TYPE = 0
CLASSIFICATION_TYPE = U
NORAD_CAT_ID   = 66135
ELEMENT_SET_NO = 999
REV_AT_EPOCH   = 334
BSTAR          = -.42795E-3
MEAN_MOTION_DOT = -.62934E-3
MEAN_MOTION_DDOT = 0

CCSDS_OMM_VERS = 2.0
CREATION_DATE  = 
ORIGINATOR     = 

OBJECT_NAME    = STARLINK-35592
OBJECT_ID      = 2025-237Y
CENTER_NAME    = EARTH
REF_FRAME      = TEME
TIME_SYSTEM    = UTC
MEAN_ELEMENT_THEORY = SGP/SGP4

EPOCH          = 2025-11-04T20:00:03.000384
MEAN_MOTION    = 15.74215142
ECCENTRICITY   = .0000908
INCLINATION    = 53.1564
RA_OF_ASC_NODE = 267.8817
ARG_OF_PERICENTER = 110.9485
MEAN_ANOMALY   = 31.2579

EPHEMERIS_TYPE = 0
CLASSIFICATION_TYPE = U
NORAD_CAT_ID   = 66136
ELEMENT_SET_NO = 999
REV_AT_EPOCH   = 338
BSTAR          = -.50886E-3
MEAN_MOTION_DOT = -.74579E-3
MEAN_MOTION_DDOT = 0

CCSDS_OMM_VERS = 2.0
CREATION_DATE  = 
ORIGINATOR     = 

OBJECT_NAME    = STARLINK-35576
OBJECT_ID      = 2025-237Z
CENTER_NAME    = EARTH
REF_FRAME      = TEME
TIME_SYSTEM    = UTC
MEAN_ELEMENT_THEORY = SGP/SGP4

EPOCH          = 2025-11-04T20:00:03.000384
MEAN_MOTION    = 15.74230686
ECCENTRICITY   = .0001041
INCLINATION    = 53.1561
RA_OF_ASC_NODE = 267.8776
ARG_OF_PERICENTER = 116.8503
MEAN_ANOMALY   = 27.2671

EPHEMERIS_TYPE = 0
CLASSIFICATION_TYPE = U
NORAD_CAT_ID   = 66137
ELEMENT_SET_NO = 999
REV_AT_EPOCH   = 338
BSTAR          = -.60179E-3
MEAN_MOTION_DOT = -.88006E-3
MEAN_MOTION_DDOT = 0

CCSDS_OMM_VERS = 2.0
CREATION_DATE  = 
ORIGINATOR     = 

OBJECT_NAME    = STARLINK-35623
OBJECT_ID      = 2025-237AA
CENTER_NAME    = EARTH
REF_FRAME      = TEME
TIME_SYSTEM    = UTC
MEAN_ELEMENT_THEORY = SGP/SGP4

EPOCH          = 2025-11-04T20:00:03.000384
MEAN_MOTION    = 15.74222010
ECCENTRICITY   = .0001225
INCLINATION    = 53.1562
RA_OF_ASC_NODE = 267.8738
ARG_OF_PERICENTER = 105.1950
MEAN_ANOMALY   = 40.8311

EPHEMERIS_TYPE = 0
CLASSIFICATION_TYPE = U
NORAD_CAT_ID   = 66138
ELEMENT_SET_NO = 999
REV_AT_EPOCH   = 338
BSTAR          = -.5014E-3
MEAN_MOTION_DOT = -.73529E-3
MEAN_MOTION_DDOT = 0

CCSDS_OMM_VERS = 2.0
CREATION_DATE  = 
ORIGINATOR     = 

OBJECT_NAME    = STARLINK-35549
OBJECT_ID      = 2025-237AB
CENTER_NAME    = EARTH
REF_FRAME      = TEME
TIME_SYSTEM    = UTC
MEAN_ELEMENT_THEORY = SGP/SGP4

EPOCH          = 2025-11-04T20:00:03.000384
MEAN_MOTION    = 15.74199385
ECCENTRICITY   = .0001141
INCLINATION    = 53.1562
RA_OF_ASC_NODE = 267.8655
ARG_OF_PERICENTER = 103.9848
MEAN_ANOMALY   = 45.8987

EPHEMERIS_TYPE = 0
CLASSIFICATION_TYPE = U
NORAD_CAT_ID   = 66139
ELEMENT_SET_NO = 999
REV_AT_EPOCH   = 338
BSTAR          = -.39926E-3
MEAN_MOTION_DOT = -.58722E-3
MEAN_MOTION_DDOT = 0

CCSDS_OMM_VERS = 2.0
CREATION_DATE  = 
ORIGINATOR     = 

OBJECT_NAME    = STARLINK-35625
OBJECT_ID      = 2025-237AC
CENTER_NAME    = EARTH
REF_FRAME      = TEME
TIME_SYSTEM    = UTC
MEAN_ELEMENT_THEORY = SGP/SGP4

EPOCH          = 2025-11-04T20:00:03.000384
MEAN_MOTION    = 15.74214886
ECCENTRICITY   = .0001123
INCLINATION    = 53.1562
RA_OF_ASC_NODE = 267.8698
ARG_OF_PERICENTER = 93.7758
MEAN_ANOMALY   = 54.1791

EPHEMERIS_TYPE = 0
CLASSIFICATION_TYPE = U
NORAD_CAT_ID   = 66140
ELEMENT_SET_NO = 999
REV_AT_EPOCH   = 338
BSTAR          = -.47552E-3
MEAN_MOTION_DOT = -.69775E-3
MEAN_MOTION_DDOT = 0

CCSDS_OMM_VERS = 2.0
CREATION_DATE  = 
ORIGINATOR     = 

OBJECT_NAME    = STARLINK-35603
OBJECT_ID      = 2025-237AD
CENTER_NAME    = EARTH
REF_FRAME      = TEME
TIME_SYSTEM    = UTC
MEAN_ELEMENT_THEORY = SGP/SGP4

EPOCH          = 2025-11-04T20:00:03.000384
MEAN_MOTION    = 15.74187405
ECCENTRICITY   = .0001126
INCLINATION    = 53.1561
RA_OF_ASC_NODE = 267.8612
ARG_OF_PERICENTER = 102.2125
MEAN_ANOMALY   = 49.5776

EPHEMERIS_TYPE = 0
CLASSIFICATION_TYPE = U
NORAD_CAT_ID   = 66141
ELEMENT_SET_NO = 999
REV_AT_EPOCH   = 338
BSTAR          = -.1489E-3
MEAN_MOTION_DOT = -.22377E-3
MEAN_MOTION_DDOT = 0

CCSDS_OMM_VERS = 2.0
CREATION_DATE  = 
ORIGINATOR     = 

OBJECT_NAME    = TJS-20
OBJECT_ID      = 2025-238A
CENTER_NAME    = EARTH
REF_FRAME      = TEME
TIME_SYSTEM    = UTC
MEAN_ELEMENT_THEORY = SGP/SGP4

EPOCH          = 2025-11-04T14:52:06.928032
MEAN_MOTION    = 1.00270081
ECCENTRICITY   = .0001954
INCLINATION    = 5.9751
RA_OF_ASC_NODE = 300.4868
ARG_OF_PERICENTER = 151.6913
MEAN_ANOMALY   = 237.4519

EPHEMERIS_TYPE = 0
CLASSIFICATION_TYPE = U
NORAD_CAT_ID   = 66142
ELEMENT_SET_NO = 999
REV_AT_EPOCH   = 8
BSTAR          = 0
MEAN_MOTION_DOT = .27E-6
MEAN_MOTION_DDOT = 0

CCSDS_OMM_VERS = 2.0
CREATION_DATE  = 
ORIGINATOR     = 

OBJECT_NAME    = CZ-5 R/B
OBJECT_ID      = 2025-238B
CENTER_NAME    = EARTH
REF_FRAME      = TEME
TIME_SYSTEM    = UTC
MEAN_ELEMENT_THEORY = SGP/SGP4

EPOCH          = 2025-11-04T08:08:43.967328
MEAN_MOTION    = 1.93246344
ECCENTRICITY   = .75955476
INCLINATION    = 16.3627
RA_OF_ASC_NODE = 269.4708
ARG_OF_PERICENTER = 171.3434
MEAN_ANOMALY   = 220.2509

EPHEMERIS_TYPE = 0
CLASSIFICATION_TYPE = U
NORAD_CAT_ID   = 66143
ELEMENT_SET_NO = 999
REV_AT_EPOCH   = 24
BSTAR          = .13324882E-2
MEAN_MOTION_DOT = .32736E-3
MEAN_MOTION_DDOT = .932548E-6

CCSDS_OMM_VERS = 2.0
CREATION_DATE  = 
ORIGINATOR     = 

OBJECT_NAME    = SPAINSAT NG II
OBJECT_ID      = 2025-239A
CENTER_NAME    = EARTH
REF_FRAME      = TEME
TIME_SYSTEM    = UTC
MEAN_ELEMENT_THEORY = SGP/SGP4

EPOCH          = 2025-11-03T23:03:57.538368
MEAN_MOTION    = 1.12068413
ECCENTRICITY   = .8115523
INCLINATION    = 24.1342
RA_OF_ASC_NODE = 245.2589
ARG_OF_PERICENTER = 181.1363
MEAN_ANOMALY   = 173.9363

EPHEMERIS_TYPE = 0
CLASSIFICATION_TYPE = U
NORAD_CAT_ID   = 66144
ELEMENT_SET_NO = 999
REV_AT_EPOCH   = 14
BSTAR          = .33584E-2
MEAN_MOTION_DOT = -.276E-5
MEAN_MOTION_DDOT = 0

CCSDS_OMM_VERS = 2.0
CREATION_DATE  = 
ORIGINATOR     = 

OBJECT_NAME    = STARLINK-35318
OBJECT_ID      = 2025-240A
CENTER_NAME    = EARTH
REF_FRAME      = TEME
TIME_SYSTEM    = UTC
MEAN_ELEMENT_THEORY = SGP/SGP4

EPOCH          = 2025-11-04T16:00:03.000096
MEAN_MOTION    = 15.82197534
ECCENTRICITY   = .0000666
INCLINATION    = 53.1522
RA_OF_ASC_NODE = 288.0609
ARG_OF_PERICENTER = 102.5241
MEAN_ANOMALY   = 252.7536

EPHEMERIS_TYPE = 0
CLASSIFICATION_TYPE = U
NORAD_CAT_ID   = 66146
ELEMENT_SET_NO = 999
REV_AT_EPOCH   = 283
BSTAR          = -.72454E-2
MEAN_MOTION_DOT = -.1334008E-1
MEAN_MOTION_DDOT = 0

CCSDS_OMM_VERS = 2.0
CREATION_DATE  = 
ORIGINATOR     = 

OBJECT_NAME    = STARLINK-33948
OBJECT_ID      = 2025-240B
CENTER_NAME    = EARTH
REF_FRAME      = TEME
TIME_SYSTEM    = UTC
MEAN_ELEMENT_THEORY = SGP/SGP4

EPOCH          = 2025-11-04T16:00:03.000096
MEAN_MOTION    = 15.82204394
ECCENTRICITY   = .0000567
INCLINATION    = 53.1523
RA_OF_ASC_NODE = 288.0563
ARG_OF_PERICENTER = 98.0259
MEAN_ANOMALY   = 259.4783

EPHEMERIS_TYPE = 0
CLASSIFICATION_TYPE = U
NORAD_CAT_ID   = 66147
ELEMENT_SET_NO = 999
REV_AT_EPOCH   = 283
BSTAR          = -.73749E-2
MEAN_MOTION_DOT = -.1355125E-1
MEAN_MOTION_DDOT = 0

